0 SL-18 DEB
1 22568U 93014D   13281.24553073  .00000722  00000-0  22920-3 0  1209
2 22568 075.7502 148.3308 0174835 169.7456 313.0810 14.32598649 69118
0 SL-18 DEB
1 22568U 93014D   13283.33974601  .00000841  00000-0  26613-3 0  1211
2 22568 075.7499 144.9075 0174812 164.8674 313.7301 14.32604735 69418
0 SL-18 DEB
1 22568U 93014D   13285.84536832  .00000922  00000-0  29099-3 0  1221
2 22568 075.7496 140.8116 0174776 159.0380 276.1992 14.32607778 69772
0 SL-18 DEB
1 22568U 93014D   13288.29841729  .00001486  00000-0  46625-3 0  1238
2 22568 075.7493 136.8016 0174725 153.3357 327.5559 14.32613898 70129
0 SL-18 DEB
1 22568U 93014D   13290.74604253  .00001320  00000-0  41456-3 0  1245
2 22568 075.7491 132.8003 0174638 147.6687 350.9805 14.32621217 70470
0 SL-18 DEB
1 22568U 93014D   13292.83058633  .00001519  00000-0  47642-3 0  1256
2 22568 075.7493 129.3925 0174557 142.8038 301.9326 14.32626097 70771
0 SL-18 DEB
1 22568U 93014D   13294.85494351  .00001636  00000-0  51265-3 0  1268
2 22568 075.7495 126.0834 0174522 138.0783 302.5092 14.32632081 71062
